#aV2023  4 16  0  0  0.00000000     288 DD+AD WGS84 FIT  NGA
## 2258      0.00000000   300.00000000 60050 0.0000000000000
+   32     1  2  3  4  5  6  7  8  9 10 11 12 13 14 15 16 17
+         18 19 20 21 22 23 24 25 26 27 28 29 30 31 32  0  0
+          0  0  0  0  0  0  0  0  0  0  0  0  0  0  0  0  0
+          0  0  0  0  0  0  0  0  0  0  0  0  0  0  0  0  0
+          0  0  0  0  0  0  0  0  0  0  0  0  0  0  0  0  0
++         2  2  2  2  2  2  2  2  2  2  2  2  2  2  2  2  2
++         2  2  2  2  2  2  2  2  2  2  2  2  2  2  2  0  0
++         0  0  0  0  0  0  0  0  0  0  0  0  0  0  0  0  0
++         0  0  0  0  0  0  0  0  0  0  0  0  0  0  0  0  0
++         0  0  0  0  0  0  0  0  0  0  0  0  0  0  0  0  0
%c cc cc ccc ccc cccc cccc cccc cccc ccccc ccccc ccccc ccccc
%c cc cc ccc ccc cccc cccc cccc cccc ccccc ccccc ccccc ccccc
%f  0.0000000  0.000000000  0.00000000000  0.000000000000000
%f  0.0000000  0.000000000  0.00000000000  0.000000000000000
%i    0    0    0    0      0      0      0      0         0
%i    0    0    0    0      0      0      0      0         0
/*      NGA, ST. LOUIS,MO.                                  
/*   EPHEMERIS COMPUTED FROM 2 DAYS OF DATA                 
/*   EPOCHA v8 SMOOTHER                                     
/*   G2139 IERS2010 SATIGS SATAPC                           
*  2023  4 16 23 30  0.00000000
P  1  10839.017680  13452.365558 -20606.377804    192.696614                    
V  1 -25245.454875    660.465605 -12713.495658     -0.032688                    
P  2 -22568.740374  -6525.876276  12834.704547   -605.329291                    
V  2  15134.603003  -3676.638237  26066.702554      0.036888                    
P  3  12759.586931  23309.419666  -1809.233236   -327.438031                    
V  3  -2946.437221   -701.931397 -31948.117293      0.090898                    
P  4   4686.005050  17982.347943  18946.366096     18.596391                    
V  4 -13491.898858  19979.850519 -15745.632163      0.092556                    
P  5  -1200.047420 -21218.245467  15684.165281   -123.674821                    
V  5  12966.600890  15701.559694  22109.826450     -0.014462                    
P  6  24823.219789  -5547.767813   7885.486311    587.038407                    
V  6   9896.372557   1548.433946 -30207.133799      0.011715                    
P  7  23181.384551   7699.419162  11459.560314    199.744039                    
V  7 -13671.436419   2472.672778  26582.202808     -0.085726                    
P  8  -4361.411193  23999.347823 -10081.847208   -118.092701                    
V  8  -8384.461850  10126.466831  28309.792563     -0.018178                    
P  9  13012.344776   8094.500342  21620.808257   -178.524582                    
V  9 -12864.641424  24467.245915  -1455.776994      0.079663                    
P 10 -17093.660228  -1926.274265 -20146.576578    -33.128661                    
V 10 -12820.342018 -22451.254787  12611.375377     -0.016076                    
P 11  14270.118442 -12480.524545  18597.175035   -164.915902                    
V 11  23547.725206   2067.338922 -16722.101386     -0.127253                    
P 12  -9449.796400 -24566.434369  -4177.672969   -364.799541                    
V 12   4501.308413   3233.247509 -31221.423367     -0.046551                    
P 13  12567.539452 -22760.336406  -5047.003291    506.793573                    
V 13   5809.434194  -3432.453809  31216.403925      0.055863                    
P 14  18210.561481   4892.077117 -18752.463442     27.327698                    
V 14  10422.678397  21468.622054  15573.735813      0.116530                    
P 15    746.418426 -24374.718555 -10650.690351     31.268855                    
V 15   7715.744597 -10999.084012  27130.957214      0.034143                    
P 16  -3788.385911  19333.807663  17282.658101   -508.304498                    
V 16 -11821.200897 -19497.186986  19331.992753      0.027830                    
P 17  18364.496902  -6763.547740 -17578.452355    710.900143                    
V 17 -11077.990482  20329.848187 -18837.951756      0.017936                    
P 18 -24942.182315  -5172.972247   7788.753085   -227.279362                    
V 18   9826.206690  -2175.308986  29875.964628     -0.165600                    
P 19  19297.094426 -14134.403470 -11452.273707    304.613030                    
V 19  -6325.323656  12991.533553 -27514.364223      0.050923                    
P 20   6341.837188 -15430.671523  20742.676819    438.645111                    
V 20  17814.505852  19310.385663   8737.147512     -0.021450                    
P 21   2124.374485  14781.290001 -21406.205339    154.196311                    
V 21 -28398.492301   2769.543376    -55.277884     -0.000969                    
P 22 -18067.262713  17502.510902  -7808.724951    465.401118                    
V 22   3471.590722 -10372.360282 -29752.518396      0.068196                    
P 23 -19124.550262 -13228.300605 -12964.318193     17.347148                    
V 23  -7373.931910 -14757.819843  25779.249645      0.026234                    
P 24  -6770.767888 -15032.705950 -21232.549059   -154.472440                    
V 24  25981.954874  -3335.744745  -5604.309540     -0.145555                    
P 25 -16940.716351 -19831.179522   5412.950936    436.132448                    
V 25  -1476.207187  -7602.179901 -30419.035499      0.028563                    
P 26 -12768.315328   9187.712230  21281.040820    241.690291                    
V 26 -15940.551168 -22294.054686    399.459541     -0.002576                    
P 27 -12578.538559  23129.460402     41.840037     57.352501                    
V 27  -2433.823396  -1719.363520  32188.988523     -0.084414                    
P 28 -25341.542071   5481.771972   5722.256789     66.061506                    
V 28  -7445.476571  -2263.257278 -30669.423444      0.061505                    
P 29  -9258.284403 -12414.949238  21513.165513   -595.802015                    
V 29  15367.184887 -22700.416538  -6549.544494     -0.015391                    
P 30  26702.853088   -392.289558    -22.719028   -522.018697                    
V 30    201.523533   3369.386097  31024.087841      0.018901                    
P 31 -21634.078335   9031.738764  12733.753763   -214.124195                    
V 31 -16287.586479  -2147.460646 -25363.573522     -0.008441                    
P 32 -18243.793106   9883.803966 -16289.028025   -453.352406                    
V 32   8136.560927 -19577.409034 -20960.947962     -0.099735                    
EOF
